ISS (ZARYA)             
1 25544U 98067A   26196.12126347  .00002630  00000+0  55898-4 0  9999
2 25544  51.6305 161.8506 0007251 303.7745  56.2552 15.49005161576086
