{"fetched_at":"2026-07-15T17:46:58.170Z","source":"https://celestrak.org/NORAD/elements/gp.php?GROUP=stations&FORMAT=JSON","constellation":"iss","records":[{"OBJECT_NAME":"ISS (ZARYA)","OBJECT_ID":"1998-067A","EPOCH":"2026-07-15T02:54:37.163808","CLASSIFICATION_TYPE":"U","MEAN_MOTION":15.49005161,"ECCENTRICITY":0.0007251,"INCLINATION":51.6305,"RA_OF_ASC_NODE":161.8506,"ARG_OF_PERICENTER":303.7745,"MEAN_ANOMALY":56.2552,"EPHEMERIS_TYPE":0,"NORAD_CAT_ID":25544,"ELEMENT_SET_NO":999,"REV_AT_EPOCH":57608,"BSTAR":0.000055898,"MEAN_MOTION_DOT":0.0000263,"MEAN_MOTION_DDOT":0}]}
